station_id,station_name_ja,station_name_en,line_id,city_id,zip_code,station_address_ja,station_address_en,station_lon,station_lat,station_sort,deleted
1110101,函館,Hakodate ,11101,1,040-0063,北海道函館市若松町１２-１３,,140.726413,41.773709,1110101,0
1110102,五稜郭,Goryoukaku ,11101,1,041-0813,函館市亀田本町,,140.733539,41.803557,1110102,0
1110103,桔梗,Kikyou,11101,1,041-1210,北海道函館市桔梗３丁目４１-３６,,140.722952,41.846457,1110103,0
1110104,大中山,Onakayama ,11101,1,041-1121,亀田郡七飯町大字大中山,,140.71358,41.864641,1110104,0
1110105,七飯,Nanae ,11101,1,041-1111,亀田郡七飯町字本町,,140.688556,41.886971,1110105,0
1110106,渡島大野,Oshima Ohno ,11101,1,041-1242,北斗市市渡,,140.646525,41.9054,1110106,0
1110107,仁山,Niyama ,11101,1,041-1101,亀田郡七飯町字仁山,,140.635183,41.930011,1110107,0
1110108,大沼,Onuma ,11101,1,041-1354,北海道亀田郡七飯町字大沼町４,,140.669347,41.971954,1110108,0
1110109,大沼公園,Onumakoen ,11101,1,041-1354,北海道亀田郡七飯町字大沼町８５,,140.669758,41.980958,1110109,0
1110110,赤井川,Akaigawa ,11101,1,049-2142,茅部郡森町字赤井川,,140.642678,42.003267,1110110,0
1110111,駒ケ岳,Komagatake ,11101,1,049-2300,北海道茅部郡森町字駒ヶ岳,,140.610476,42.038809,1110111,0
1110112,東山,Higashiyama ,11101,1,049-2141,茅部郡森町字駒ケ岳,,140.605222,42.06172,1110112,0
1110113,姫川,Himekawa ,11101,1,049-2306,茅部郡森町字姫川,,140.591632,42.081312,1110113,0
1110114,池田園,Ikedaen ,11101,1,041-1352,亀田郡七飯町字軍川,,140.700333,41.990692,1110114,0
1110115,流山温泉,Nagareyama Onsen ,11101,1,041-1351,亀田郡七飯町字東大沼２３６,,140.716358,42.003483,1110115,0
1110116,銚子口,Choshiguchi ,11101,1,041-1351,亀田郡七飯町字東大沼,,140.720656,42.015471,1110116,0
1110117,鹿部,Shikabe ,11101,1,041-1404,茅部郡鹿部町字本別,,140.771393,42.06439,1110117,0
1110118,渡島沼尻,Oshima Numajiri ,11101,1,049-2223,茅部郡森町砂原東４丁目,,140.747596,42.10706,1110118,0
1110119,渡島砂原,Oshima Sunahara ,11101,1,049-2222,茅部郡森町砂原４丁目,,140.689451,42.12164,1110119,0
1110120,掛澗,Kakarima,11101,1,049-2221,茅部郡森町砂原西３丁目,,140.64598,42.119205,1110120,0
1110121,尾白内,Oshironai ,11101,1,049-2301,茅部郡森町字尾白内町,,140.613449,42.111232,1110121,0
1110122,東森,Higashimori ,11101,1,049-2302,茅部郡森町字港町,,140.59353,42.106823,1110122,0
1110123,森,Mori,11101,1,049-2325,茅部郡森町字本町,,140.573846,42.108917,1110123,0
1110124,桂川,Katsuragawa,11101,1,049-2321,茅部郡森町字鷲ノ木町,,140.5427876,42.1156004,1110124,0
1110125,石谷,Ishitani ,11101,1,049-2464,茅部郡森町字本茅部町,,140.506525,42.135519,1110125,0
1110126,本石倉,Honishikura,11101,1,049-2463,茅部郡森町字石倉町,,140.471957,42.159668,1110126,0
1110127,石倉,Ishikura ,11101,1,049-2463,茅部郡森町字石倉町,,140.458436,42.17285,1110127,0
1110128,落部,Otoshibe ,11101,1,049-2562,二海郡八雲町落部,,140.420755,42.187617,1110128,0
1110129,野田生,Nodaoi ,11101,1,049-2672,二海郡八雲町野田生,,140.37586,42.217104,1110129,0
1110130,山越,Yamakoshi ,11101,1,049-2671,二海郡八雲町山越,,140.326593,42.231172,1110130,0
1110131,八雲,Yakumo ,11101,1,049-3107,二海郡八雲町本町,,140.273342,42.253391,1110131,0
1110132,鷲ノ巣,Washinosu ,11101,1,049-3122,二海郡八雲町花浦,,140.269919,42.278389,1110132,0
1110133,山崎,Yamazaki ,11101,1,049-3342,二海郡八雲町山崎,,140.2746,42.314635,1110133,0
1110134,黒岩,Kuroiwa ,11101,1,049-3341,二海郡八雲町黒岩,,140.288173,42.368296,1110134,0
1110135,北豊津,Kitatoyotsu,11101,1,049-3464,山越郡長万部町字豊津,,140.297868,42.400969,1110135,0
1110136,国縫,Kunnui ,11101,1,049-3462,山越郡長万部町字国縫,,140.320885,42.439319,1110136,0
1110137,中ノ沢,Nakanosawa ,11101,1,049-3512,山越郡長万部町字中の沢,,140.346077,42.477928,1110137,0
1110138,長万部,Oshamambe ,11101,1,049-3521,山越郡長万部町字長万部,,140.37507,42.512477,1110138,0
1110201,長万部,Oshamambe ,11102,1,049-3521,山越郡長万部町字長万部,,140.37507,42.512477,1110201,0
1110202,二股,Futamata,11102,1,049-3501,山越郡長万部町字双葉,,140.320821,42.575869,1110202,0
1110203,蕨岱,Warabitai ,11102,1,049-3503,山越郡長万部町字蕨岱,,140.313353,42.626353,1110203,0
1110204,黒松内,Kuromatsunai ,11102,1,048-0101,寿都郡黒松内町字黒松内,,140.305704,42.669608,1110204,0
1110205,熱郛,Neppu,11102,1,048-0134,寿都郡黒松内町字白井川,,140.375084,42.675653,1110205,0
1110206,目名,Mena,11102,1,048-1261,磯谷郡蘭越町目名町,,140.465742,42.761432,1110206,0
1110207,蘭越,Rankoshi ,11102,1,048-1301,磯谷郡蘭越町蘭越町,,140.52894,42.804542,1110207,0
1110208,昆布,Kombu,11102,1,048-1302,磯谷郡蘭越町昆布町,,140.596107,42.797984,1110208,0
1110209,ニセコ,Niseko ,11102,1,048-1512,虻田郡ニセコ町字中央通,,140.684588,42.808746,1110209,0
1110210,比羅夫,Hirafu ,11102,1,044-0077,虻田郡倶知安町比羅夫,,140.722615,42.84856,1110210,0
1110211,倶知安,Kutchan ,11102,1,044-0051,虻田郡倶知安町北三条西４丁目,,140.745471,42.90164,1110211,0
1110212,小沢,Ozawa ,11102,1,048-2142,岩内郡共和町小沢,,140.677657,42.97185,1110212,0
1110213,銀山,Ginzan,11102,1,048-2335,余市郡仁木町銀山２丁目,,140.715321,43.040888,1110213,0
1110214,然別,Shikaribetsu ,11102,1,048-2403,余市郡仁木町然別,,140.737211,43.12551,1110214,0
1110215,仁木,Niki ,11102,1,048-2405,余市郡仁木町字北町１丁目,,140.770546,43.154091,1110215,0
1110216,余市,Yoichi ,11102,1,046-0003,余市郡余市町黒川町５丁目,,140.794686,43.186558,1110216,0
1110217,蘭島,Ranshima,11102,1,048-2562,小樽市蘭島１丁目,,140.854643,43.19651,1110217,0
1110218,塩谷,Shioya ,11102,1,048-2672,小樽市塩谷２丁目,,140.924546,43.202406,1110218,0
1110219,小樽,Otaru ,11102,1,047-0032,小樽市稲穂２丁目,,140.993653,43.197172,1110219,0
1110301,小樽,Otaru ,11103,1,047-0032,小樽市稲穂２丁目,,140.993653,43.197172,1110301,0
1110302,南小樽,Minamiotaru ,11103,1,047-0015,小樽市住吉町,,141.007883,43.186529,1110302,0
1110303,小樽築港,Otaruchikko ,11103,1,047-0008,小樽市築港,,141.029051,43.180752,1110303,0
1110304,朝里,Asari ,11103,1,047-0151,小樽市朝里１丁目,,141.063923,43.176868,1110304,0
1110305,銭函,Zenibako ,11103,1,047-0261,小樽市銭函２丁目,,141.159868,43.143403,1110305,0
1110306,ほしみ,Hoshimi ,11103,1,006-0859,札幌市手稲区手稲星置１条９丁目,,141.191402,43.13373,1110306,0
1110307,星置,Hoshioki ,11103,1,006-0851,札幌市手稲区星置１条３丁目,,141.210856,43.132375,1110307,0
1110308,稲穂,Inaho,11103,1,006-0831,札幌市手稲区曙１条３丁目,,141.222919,43.128115,1110308,0
1110309,手稲,Teine ,11103,1,006-0021,札幌市手稲区手稲本町１条４丁目,,141.243785,43.120238,1110309,0
1110310,稲積公園,Inazumikoen ,11103,1,006-0011,札幌市手稲区富丘１条４丁目,,141.257113,43.112023,1110310,0
1110311,発寒,Hassamu ,11103,1,063-0829,札幌市西区発寒９条１３丁目,,141.277273,43.099819,1110311,0
1110312,発寒中央,Hassamuchuo ,11103,1,063-0826,札幌市西区発寒十条３丁目,,141.294497,43.089271,1110312,0
1110313,琴似,Kotoni ,11103,1,063-0812,札幌市西区琴似2条2丁目,,141.307418,43.081599,1110313,0
1110314,桑園,Soen,11103,1,060-0011,札幌市中央区北１１条西１５丁目,,141.332036,43.070744,1110314,0
1110315,札幌,Sapporo ,11103,1,060-0806,札幌市北区北６条西４丁目,,141.350768,43.068612,1110315,0
1110316,苗穂,Naebo ,11103,1,060-0033,札幌市中央区北３条東１３丁目,,141.377522,43.068574,1110316,0
1110317,白石,Shiroishi,11103,1,003-0029,札幌市白石区平和通3丁目北6,,141.413612,43.054715,1110317,0
1110318,厚別,Atsubetsu ,11103,1,004-0055,札幌市厚別区厚別中央５条４丁目,,141.46369,43.045154,1110318,0
1110319,森林公園,Shinrinkoen,11103,1,004-0071,札幌市厚別区厚別北１条４丁目,,141.481332,43.056456,1110319,0
1110320,大麻,Oasa,11103,1,069-0854,江別市大麻中町,,141.496925,43.072382,1110320,0
1110321,野幌,Nopporo ,11103,1,069-0813,江別市野幌町,,141.52984,43.092559,1110321,0
1110322,高砂,Takasago ,11103,1,067-0074,江別市高砂町,,141.540752,43.100084,1110322,0
1110323,江別,Ebetsu ,11103,1,067-0071,江別市萩ケ岡,,141.55679,43.110189,1110323,0
1110324,豊幌,Toyohoro ,11103,1,067-0021,江別市豊幌,,141.62466,43.136446,1110324,0
1110325,幌向,Horomui ,11103,1,069-0371,岩見沢市幌向南１条３丁目,,141.655839,43.151348,1110325,0
1110326,上幌向,Kamihoromui ,11103,1,069-0362,岩見沢市上幌向南１条４丁目,,141.715391,43.18183,1110326,0
1110327,岩見沢,Iwamizawa ,11103,1,068-0034,岩見沢市有明町南,,141.759359,43.204201,1110327,0
1110328,峰延,Minenobu ,11103,1,072-0000,美唄市峰延,,141.814673,43.264694,1110328,0
1110329,光珠内,Koshunai ,11103,1,072-0000,美唄市光珠内,,141.844655,43.292658,1110329,0
1110330,美唄,Bibai ,11103,1,072-0012,美唄市東一条南２丁目,,141.862157,43.330751,1110330,0
1110331,茶志内,Chashinai ,11103,1,079-0261,美唄市茶志内町,,141.87336,43.369842,1110331,0
1110332,奈井江,Naie ,11103,1,079-0313,空知郡奈井江町本町１区,,141.889115,43.423718,1110332,0
1110333,豊沼,Toyonuma ,11103,1,073-0138,砂川市豊沼町,,141.901032,43.464224,1110333,0
1110334,砂川,Sunagawa ,11103,1,073-0152,砂川市東２条北２丁目,,141.909642,43.493468,1110334,0
1110335,滝川,Takigawa ,11103,1,073-0031,滝川市栄町４丁目,,141.900807,43.555278,1110335,0
1110336,江部乙,Ebeotsu ,11103,1,079-0462,滝川市江部乙町西町１２丁目,,141.935937,43.627564,1110336,0
1110337,妹背牛,Moseushi ,11103,1,079-0500,雨竜郡妹背牛町字妹背牛,,141.966591,43.690841,1110337,0
1110338,深川,Fukagawa,11103,1,074-0001,深川市１条,,142.041642,43.721021,1110338,0
1110339,納内,Osamunai ,11103,1,078-0151,深川市納内町字納内,,142.130072,43.732509,1110339,0
1110340,伊納,Ino ,11103,1,070-8052,旭川市江丹別町春日,,142.27167,43.763305,1110340,0
1110341,近文,Chikabumi ,11103,1,070-0821,旭川市近文町１９丁目,,142.325327,43.789193,1110341,0
1110342,旭川,Asahikawa ,11103,1,070-0030,旭川市宮下通８丁目,,142.357803,43.763492,1110342,0
1110401,長万部,Oshamambe ,11104,1,049-3521,山越郡長万部町字長万部,,140.37507,42.512477,1110401,0
1110402,静狩,Shizukari ,11104,1,049-5141,山越郡長万部町字静狩,,140.460025,42.584065,1110402,0
1110403,小幌,Koboro ,11104,1,049-5333,虻田郡豊浦町字礼文華,,140.537361,42.589731,1110403,0
1110404,礼文,Rebun ,11104,1,049-5333,虻田郡豊浦町字礼文華,,140.595013,42.580422,1110404,0
1110405,大岸,Ogishi ,11104,1,049-5332,虻田郡豊浦町字大岸,,140.639036,42.585969,1110405,0
1110406,豊浦,Toyoura ,11104,1,049-5412,虻田郡豊浦町字旭町,,140.71536,42.580323,1110406,0
1110407,洞爺,Toya ,11104,1,049-5611,虻田郡洞爺湖町旭町,,140.763959,42.55055,1110407,0
1110408,有珠,Usu ,11104,1,059-0151,伊達市有珠町,,140.793969,42.513267,1110408,0
1110409,長和,Nagawa ,11104,1,052-0035,伊達市長和町,,140.833783,42.488262,1110409,0
1110410,伊達紋別,Date Monbetsu ,11104,1,052-0032,伊達市山下町,,140.855802,42.469395,1110410,0
1110411,北舟岡,Kita Funaoka,11104,1,052-0014,伊達市舟岡町,,140.880259,42.450528,1110411,0
1110412,稀府,Mareppu ,11104,1,059-0273,伊達市南稀府町,,140.898836,42.425567,1110412,0
1110413,黄金,Kogane,11104,1,059-0271,伊達市南黄金町,,140.907781,42.386441,1110413,0
1110414,崎守,Sakimori ,11104,1,050-0055,室蘭市崎守町,,140.927141,42.373968,1110414,0
1110415,本輪西,Motowanishi ,11104,1,050-0065,室蘭市本輪西町１丁目,,140.977561,42.358734,1110415,0
1110416,室蘭,Muroran ,11104,1,051-0023,室蘭市入江町１,,140.97571,42.317864,1110416,0
1110417,母恋,Bokoi,11104,1,051-0004,室蘭市母恋北町１丁目,,140.990018,42.317295,1110417,0
1110418,御崎,Misaki ,11104,1,051-0001,室蘭市御崎町２丁目,,140.993881,42.329014,1110418,0
1110419,輪西,Wanishi ,11104,1,050-0087,室蘭市仲町,,141.005743,42.333775,1110419,0
1110420,東室蘭,Higashimuroran ,11104,1,050-0083,室蘭市東町２丁目,,141.026411,42.349374,1110420,0
1110421,鷲別,Washibetsu ,11104,1,059-0034,登別市鷲別町２丁目,,141.042759,42.35953,1110421,0
1110422,幌別,Horobetsu ,11104,1,059-0013,登別市幌別町３丁目,,141.107293,42.409782,1110422,0
1110423,富浦,Tomiura ,11104,1,059-0462,登別市富浦町１丁目,,141.156878,42.441957,1110423,0
1110424,登別,Noboribetsu ,11104,1,059-0466,登別市登別港町１丁目,,141.180931,42.45207,1110424,0
1110425,虎杖浜,Kojohama ,11104,1,059-0641,白老郡白老町字虎杖浜,,141.215092,42.464695,1110425,0
1110426,竹浦,Takeura ,11104,1,059-0642,白老郡白老町字竹浦,,141.260395,42.49284,1110426,0
1110427,北吉原,Kitayoshiwara ,11104,1,059-0923,白老郡白老町字北吉原,,141.286199,42.509119,1110427,0
1110428,萩野,Hagino ,11104,1,059-0922,白老郡白老町字萩野,,141.30603,42.521159,1110428,0
1110429,白老,Shiraoi ,11104,1,059-0904,白老郡白老町東町１丁目,,141.360054,42.55474,1110429,0
1110430,社台,Yashirodai ,11104,1,059-0901,白老郡白老町字社台,,141.417433,42.578682,1110430,0
1110431,錦岡,Nishikioka ,11104,1,059-1275,苫小牧市字錦岡,,141.48722,42.6025,1110431,0
1110432,糸井,Itoi ,11104,1,053-0816,苫小牧市日吉町３丁目,,141.546187,42.6225,1110432,0
1110433,青葉,Aoba,11104,1,053-0807,苫小牧市青葉町１丁目,,141.568278,42.62999,1110433,0
1110434,苫小牧,Tomakomai ,11104,1,053-0022,苫小牧市表町６丁目,,141.596837,42.639665,1110434,0
1110501,苫小牧,Tomakomai ,11105,1,053-0022,苫小牧市表町６丁目,,141.596837,42.639665,1110501,0
1110502,沼ノ端,Numanohata ,11105,1,059-1364,苫小牧市字沼ノ端,,141.693132,42.672057,1110502,0
1110503,遠浅,Toasa,11105,1,059-1433,勇払郡安平町遠浅,,141.769568,42.729533,1110503,0
1110504,早来,Hayakita ,11105,1,059-1501,勇払郡安平町早来大町,,141.814106,42.765237,1110504,0
1110505,安平,Abira,11105,1,059-1511,勇払郡安平町安平,,141.825283,42.814007,1110505,0
1110506,追分,Oiwake ,11105,1,059-1931,勇払郡安平町追分中央,,141.810678,42.873316,1110506,0
1110507,三川,Mikawa ,11105,1,069-1200,夕張郡由仁町三川,,141.800778,42.945029,1110507,0
1110508,古山,Furuyama ,11105,1,069-1216,夕張郡由仁町字古山,,141.793969,42.975256,1110508,0
1110509,由仁,Yuni ,11105,1,069-1216,夕張郡由仁町古山,,141.785868,43.012206,1110509,0
1110510,栗山,Kuriyama ,11105,1,069-1511,夕張郡栗山町中央３丁目,,141.775603,43.058164,1110510,0
1110511,栗丘,Kurioka ,11105,1,068-0134,岩見沢市栗沢町栗丘,,141.744333,43.085444,1110511,0
1110512,栗沢,Kurisawa ,11105,1,068-0127,岩見沢市栗沢町本町,,141.739743,43.120367,1110512,0
1110513,志文,Shimon ,11105,1,068-0841,岩見沢市志文本町１条４丁目,,141.744443,43.158903,1110513,0
1110514,岩見沢,Iwamizawa ,11105,1,068-0034,岩見沢市有明町南,,141.759359,43.204201,1110514,0
1110601,滝川,Takigawa ,11106,1,073-0031,滝川市栄町４丁目,,141.900807,43.555278,1110601,0
1110602,東滝川,Higashitakikawa ,11106,1,073-0026,滝川市東滝川,,141.98031,43.574037,1110602,0
1110603,赤平,Akabira ,11106,1,079-1134,赤平市泉町１丁目,,142.048669,43.555144,1110603,0
1110604,茂尻,Moshiri ,11106,1,079-1100,赤平市字茂尻町南２丁目,,142.082156,43.537314,1110604,0
1110605,平岸,Hiragishi ,11106,1,079-1282,北海道赤平市平岸仲町１丁目,,142.123872,43.541401,1110605,0
1110606,芦別,Ashibetsu ,11106,1,075-0041,芦別市本町,,142.184543,43.516636,1110606,0
1110607,上芦別,Kamiashibetsu ,11106,1,079-1371,芦別市上芦別町,,142.210855,43.48871,1110607,0
1110608,野花南,Nokanan ,11106,1,079-1372,芦別市野花南町,,142.261772,43.474418,1110608,0
1110609,島ノ下,Shimanoshita ,11106,1,076-0036,富良野市字島ノ下,,142.350406,43.3744,1110609,0
1110610,富良野,Furano ,11106,1,076-0025,富良野市日の出町,,142.391374,43.347114,1110610,0
1110611,布部,Nonobe,11106,1,076-0004,富良野市字布部市街地,,142.400595,43.291991,1110611,0
1110612,山部,Yamabe ,11106,1,079-1561,富良野市山部市街地１条通り南１,,142.381522,43.244645,1110612,0
1110613,下金山,Shimokanayama ,11106,1,079-2132,空知郡南富良野町字下金山,,142.415402,43.197328,1110613,0
1110614,金山,Kanayama,11106,1,079-2131,空知郡南富良野町字金山,,142.416201,43.136115,1110614,0
1110615,東鹿越,Higashishikagoe ,11106,1,079-2411,空知郡南富良野町東鹿越,,142.523472,43.164011,1110615,0
1110616,幾寅,Ikutora ,11106,1,079-2401,空知郡南富良野町幾寅仲町,,142.569474,43.161582,1110616,0
1110617,落合,Ochiai ,11106,1,079-2551,空知郡南富良野町落合,,142.669104,43.125055,1110617,0
1110618,新得,Shintoku,11106,1,081-0005,上川郡新得町本通北１丁目,,142.832432,43.082501,1110618,0
1110701,新得,Shintoku,11107,1,081-0005,上川郡新得町本通北１丁目,,142.832432,43.082501,1110701,0
1110702,十勝清水,Tokachishimizu ,11107,1,089-0136,上川郡清水町本通１丁目,,142.879535,43.012892,1110702,0
1110703,羽帯,Haobi ,11107,1,089-0356,上川郡清水町字羽帯,,142.906646,42.957499,1110703,0
1110704,御影,Mikage ,11107,1,089-0354,上川郡清水町御影本通り１丁目,,142.935739,42.942418,1110704,0
1110705,芽室,Memuro ,11107,1,082-0030,河西郡芽室町本通り１丁目,,143.047991,42.909846,1110705,0
1110706,大成,Taisei ,11107,1,082-0006,河西郡芽室町東芽室南２線,,143.071241,42.918662,1110706,0
1110707,西帯広,Nishiobihiro ,11107,1,080-2473,帯広市西２３条南１丁目,,143.126351,42.923941,1110707,0
1110708,柏林台,Hakurindai,11107,1,080-0027,帯広市西１７条南１丁目,,143.1645,42.928877,1110708,0
1110709,帯広,Obihiro ,11107,1,080-0012,帯広市西２条南１２丁目,,143.20195,42.917997,1110709,0
1110710,札内,Satsunai ,11107,1,089-0543,中川郡幕別町字札内中央町,,143.256248,42.912697,1110710,0
1110711,稲士別,Inashibetsu,11107,1,089-0564,中川郡幕別町稲志別,,143.297528,42.903963,1110711,0
1110712,幕別,Makubetsu ,11107,1,089-0604,中川郡幕別町錦町,,143.359293,42.90784,1110712,0
1110713,利別,Toshibetsu,11107,1,083-0031,中川郡池田町字利別西町,,143.424445,42.934706,1110713,0
1110714,池田,Ikeda ,11107,1,083-0091,中川郡池田町東１条１丁目,,143.453033,42.922186,1110714,0
1110715,十弗,Tofutsu ,11107,1,089-5243,中川郡豊頃町字十弗宝町,,143.500797,42.855781,1110715,0
1110716,豊頃,Toyokoro ,11107,1,089-5232,中川郡豊頃町豊頃旭町,,143.538615,42.817548,1110716,0
1110717,新吉野,Shin Yoshino ,11107,1,089-5541,十勝郡浦幌町字吉野,,143.60826,42.778238,1110717,0
1110718,浦幌,Urahoro ,11107,1,089-5603,十勝郡浦幌町字本町,,143.651568,42.810849,1110718,0
1110719,上厚内,Kamiatsunai ,11107,1,089-5866,十勝郡浦幌町字上厚内,,143.749788,42.831881,1110719,0
1110720,厚内,Atsunai,11107,1,089-5865,十勝郡浦幌町字厚内,,143.814389,42.809539,1110720,0
1110721,直別,Chokubetsu,11107,1,088-0135,釧路市音別町直別,,143.863607,42.852205,1110721,0
1110722,尺別,Shakubetsu ,11107,1,088-0132,釧路市音別町尺別（岐線）,,143.904331,42.869163,1110722,0
1110723,音別,Ombetsu,11107,1,088-0115,釧路市音別町本町１丁目,,143.932442,42.888997,1110723,0
1110724,古瀬,Furuse ,11107,1,088-0351,白糠郡白糠町和天別,,144.008589,42.947893,1110724,0
1110725,白糠,Shiranuka ,11107,1,088-0301,白糠郡白糠町東１条南１丁目,,144.076879,42.956161,1110725,0
1110726,西庶路,Nishishoro ,11107,1,088-0572,白糠郡白糠町西庶路西１条南３丁目,,144.129826,42.976138,1110726,0
1110727,庶路,Shoro ,11107,1,088-0563,白糠郡白糠町庶路甲区,,144.150018,42.983601,1110727,0
1110728,大楽毛,Otanoshike ,11107,1,084-0917,釧路市大楽毛５丁目,,144.273879,43.009078,1110728,0
1110729,新大楽毛,Shin Otanoshike,11107,1,084-0917,釧路市大楽毛１丁目,,144.295558,43.009423,1110729,0
1110730,新富士,Shinfuji ,11107,1,084-0904,釧路市新富士町３丁目,,144.350758,43.001605,1110730,0
1110731,釧路,Kushiro ,11107,1,085-0015,釧路市北大通１４丁目,,144.381983,42.990584,1110731,0
1110801,釧路,Kushiro ,11108,1,085-0015,釧路市北大通１４丁目,,144.381983,42.990584,1110801,0
1110802,東釧路,Higashikushiro ,11108,1,085-0816,釧路市貝塚２丁目,,144.411307,42.995207,1110802,0
1110803,武佐,Musa,11108,1,085-0806,釧路市武佐４丁目,,144.426681,42.991364,1110803,0
1110804,別保,Betsuho ,11108,1,088-0604,釧路郡釧路町字別保,,144.469596,42.994384,1110804,0
1110805,上尾幌,Kamioboro ,11108,1,088-0771,厚岸郡厚岸町字上尾幌市街,,144.61239,43.032893,1110805,0
1110806,尾幌,Oboro,11108,1,088-0875,厚岸郡厚岸町大字苫多村字尾幌,,144.703758,43.018463,1110806,0
1110807,門静,Monshizu ,11108,1,088-1126,厚岸郡厚岸町字門静,,144.782638,43.057581,1110807,0
1110808,厚岸,Akkeshi ,11108,1,088-1124,厚岸郡厚岸町字宮園町,,144.841355,43.056248,1110808,0
1110809,糸魚沢,Itoizawa,11108,1,088-1101,厚岸郡厚岸町大字別寒辺牛村ベカンベウシ,,144.92545,43.103506,1110809,0
1110810,茶内,Chanai,11108,1,088-1500,厚岸郡浜中町大字琵琶瀬村字茶内市街,,145.02801,43.129266,1110810,0
1110811,浜中,Hamanaka ,11108,1,088-1500,厚岸郡浜中町大字後静村字浜中市街,,145.099657,43.15754,1110811,0
1110812,姉別,Anebetsu,11108,1,088-1500,厚岸郡浜中町大字後静村字姉別市街,,145.194716,43.196201,1110812,0
1110813,厚床,Attoko ,11108,1,086-0064,根室市厚床１丁目,,145.252096,43.228224,1110813,0
1110814,初田牛,Hattaushi ,11108,1,086-0076,根室市初田牛,,145.32277,43.204542,1110814,0
1110815,別当賀,Betsutoga ,11108,1,086-0075,根室市別当賀,,145.423593,43.218427,1110815,0
1110816,落石,Ochiishi,11108,1,088-1782,根室市落石東,,145.519449,43.198335,1110816,0
1110817,昆布盛,Konbumori ,11108,1,088-1784,根室市昆布盛,,145.542444,43.228593,1110817,0
1110818,西和田,Nishiwada ,11108,1,087-0033,根室市西和田,,145.541817,43.268043,1110818,0
1110819,花咲,Hanasaki ,11108,1,087-0032,根室市花咲港,,145.575045,43.295388,1110819,0
1110820,東根室,Higashi-Nemuro,11108,1,087-0004,根室市光洋町２丁目,,145.597234,43.323655,1110820,0
1110821,根室,Nemuro ,11108,1,087-0027,根室市光和町２丁目,,145.582707,43.326923,1110821,0
1110901,苫小牧,Tomakomai ,11109,1,053-0022,苫小牧市表町６丁目,,141.596837,42.639665,1110901,0
1110902,沼ノ端,Numanohata ,11109,1,059-1364,苫小牧市字沼ノ端,,141.693132,42.672057,1110902,0
1110903,植苗,Uenae ,11109,1,059-1365,苫小牧市字植苗,,141.735344,42.713645,1110903,0
1110904,美々,Bibi ,11109,1,066-0012,千歳市美々,,141.711387,42.777418,1110904,0
1110905,新千歳空港,New Chitose Airport ,11109,1,066-0012,千歳市美々,,141.680823,42.787546,1110905,0
1110906,南千歳,Minami-Chitose ,11109,1,066-0044,千歳市字平和,,141.675388,42.80804,1110906,0
1110907,千歳,Chitose ,11109,1,066-0062,千歳市千代田町７丁目,,141.651934,42.82811,1110907,0
1110908,長都,Osatsu ,11109,1,066-0077,千歳市上長都,,141.622987,42.852178,1110908,0
1110909,サッポロビール庭園,Sapporo-beer-teien,11109,1,061-1405,恵庭市戸磯,,141.605616,42.866812,1110909,0
1110910,恵庭,Eniwa ,11109,1,061-1448,恵庭市相生町,,141.586234,42.883076,1110910,0
1110911,恵み野,Megumino ,11109,1,061-1373,恵庭市恵み野西１丁目,,141.574429,42.902704,1110911,0
1110912,島松,Shimamatsu ,11109,1,061-1352,恵庭市島松仲町１丁目１-１,,141.573117,42.922504,1110912,0
1110913,北広島,Kitahiroshima ,11109,1,061-1121,北広島市中央６丁目,,141.563115,42.979239,1110913,0
1110914,上野幌,Kaminopporo ,11109,1,004-0039,札幌市厚別区厚別町上野幌,,141.487317,43.016177,1110914,0
1110915,新札幌,Shinsapporo ,11109,1,004-0052,札幌市厚別区厚別中央二条５丁目,,141.47237,43.038732,1110915,0
1110916,平和,Heiwa,11109,1,003-0029,札幌市白石区平和通１６丁目北,,141.437967,43.04695,1110916,0
1110917,白石,Shiroishi,11109,1,003-0029,札幌市白石区平和通3丁目北6,,141.413612,43.054715,1110917,0
1110918,苗穂,Naebo ,11109,1,060-0033,札幌市中央区北３条東１３丁目,,141.377522,43.068574,1110918,0
1110919,札幌,Sapporo ,11109,1,060-0806,札幌市北区北６条西４丁目,,141.350768,43.068612,1110919,0
1111001,南千歳,Minami-Chitose ,11110,1,066-0044,千歳市字平和,,141.675388,42.80804,1111001,0
1111002,追分,Oiwake ,11110,1,059-1931,勇払郡安平町追分中央,,141.810678,42.873316,1111002,0
1111003,東追分,Higashi-Oiwake ,11110,1,059-1984,勇払郡安平町追分向陽,,141.83228,42.902377,1111003,0
1111004,川端,Kawabata,11110,1,069-1141,夕張郡由仁町字川端,,141.894791,42.914721,1111004,0
1111005,滝ノ上,Takinoue ,11110,1,068-0756,夕張市滝ノ上,,141.97628,42.910244,1111005,0
1111006,十三里,Tomisato,11110,1,068-0755,夕張市紅葉山,,142.024478,42.914667,1111006,0
1111007,新夕張,Shin-Yubari,11110,1,068-0755,夕張市紅葉山,,142.03657,42.936611,1111007,0
1111008,沼ノ沢,Numanosawa ,11110,1,068-0751,夕張市沼ノ沢,,142.030836,42.957586,1111008,0
1111009,南清水沢,Minamishimizusawa ,11110,1,068-0536,夕張市南清水沢２丁目,,142.006597,42.985272,1111009,0
1111010,清水沢,Shimizusawa ,11110,1,068-0531,夕張市清水沢３丁目,,142.007285,42.99827,1111010,0
1111011,鹿ノ谷,Shikanotani ,11110,1,068-0413,夕張市鹿の谷３丁目,,141.964476,43.039447,1111011,0
1111012,夕張,Yubari ,11110,1,068-0411,夕張市末広１丁目,,141.967472,43.050926,1111012,0
1111013,占冠,Shimukappu ,11110,1,079-2202,勇払郡占冠村占冠,,142.400078,42.993088,1111013,0
1111014,トマム,Tomamu ,11110,1,079-2204,勇払郡占冠村字中トマム,,142.610937,43.055913,1111014,0
1111015,新得,Shintoku,11110,1,081-0005,上川郡新得町本通北１丁目,,142.832432,43.082501,1111015,0
1111101,苫小牧,Tomakomai ,11111,1,053-0022,苫小牧市表町６丁目,,141.596837,42.639665,1111101,0
1111102,勇払,Yufutsu ,11111,1,059-1372,苫小牧市字勇払,,141.727667,42.632805,1111102,0
1111103,浜厚真,Hamaatsuma ,11111,1,059-1742,勇払郡厚真町字浜厚真,,141.837071,42.606725,1111103,0
1111104,浜田浦,Hamataura ,11111,1,054-0004,勇払郡むかわ町田浦,,141.88362,42.590722,1111104,0
1111105,鵡川,Mukawa ,11111,1,054-0023,勇払郡むかわ町末広２丁目,,141.923892,42.578953,1111105,0
1111106,汐見,Shiomi ,11111,1,054-0015,勇払郡むかわ町汐見,,141.945255,42.550235,1111106,0
1111107,富川,Tomikawa,11111,1,055-0006,沙流郡日高町富川南４丁目,,142.020855,42.516865,1111107,0
1111108,日高門別,Hidaka Monbetsu ,11111,1,059-2121,沙流郡日高町門別本町,,142.072692,42.481237,1111108,0
1111109,豊郷,Toyosato,11111,1,059-2126,沙流郡日高町豊郷,,142.122493,42.470119,1111109,0
1111110,清畠,Kiyohata ,11111,1,059-2245,沙流郡日高町清畠,,142.176624,42.455709,1111110,0
1111111,厚賀,Atsuga ,11111,1,059-2243,沙流郡日高町厚賀町,,142.215896,42.430507,1111111,0
1111112,大狩部,Okaribe ,11111,1,059-2253,新冠郡新冠町字大狩部,,142.259355,42.395695,1111112,0
1111113,節婦,Seppu,11111,1,059-2412,新冠郡新冠町字節婦町,,142.275541,42.38248,1111113,0
1111114,新冠,Niikappu ,11111,1,059-2400,新冠郡新冠町新冠字本町,,142.312585,42.360667,1111114,0
1111115,静内,Shizunai ,11111,1,056-0016,日高郡新ひだか町静内本町５丁目,,142.360402,42.336559,1111115,0
9991301,赤迫,,99913,42,852-8155,長崎市中園町,,129.857948,32.793732,9991301,0
9991302,住吉,,99913,42,852-8154,長崎市住吉町,,129.859836,32.792073,9991302,0
9991303,昭和町通り,,99913,42,,長崎県長崎市中園町,,129.860694,32.79063,9991303,0
9991304,千歳町,,99913,42,852-8137,長崎市若葉町,,129.860952,32.78962,9991304,0
9991305,若葉町,,99913,42,852-8137,長崎市若葉町,,129.861596,32.787744,9991305,0
9991306,長崎大学前,,99913,42,852-8137,長崎市若葉町,,129.862282,32.785759,9991306,0
9991307,岩屋橋,,99913,42,852-8134,長崎市大橋町,,129.862282,32.781935,9991307,0
9991308,浦上車庫前,,99913,42,852-8134,長崎市大橋町,,129.861381,32.77968,9991308,0
9991309,大橋,,99913,42,852-8118,長崎市松山町,,129.861467,32.777713,9991309,0
9991310,松山町,,99913,42,852-8118,長崎市松山町,,129.862132,32.773437,9991310,0
9991311,浜口町,,99913,42,852-8107,長崎市浜口町,,129.863784,32.770551,9991311,0
9991312,大学病院前,,99913,42,852-8107,長崎市浜口町,,129.864171,32.769017,9991312,0
9991313,浦上駅前,,99913,42,852-8106,長崎市岩川町,,129.864171,32.765481,9991313,0
9991314,茂里町,,99913,42,852-8105,長崎市目覚町,,129.864557,32.763965,9991314,0
9991315,銭座町,,99913,42,850-0047,長崎市銭座町,,129.865801,32.761475,9991315,0
9991316,宝町,,99913,42,850-0045,長崎市宝町,,129.868913,32.75783,9991316,0
9991317,八千代町,,99913,42,850-0043,長崎市八千代町,,129.870436,32.754979,9991317,0
9991318,長崎駅前,,99913,42,850-0057,長崎市大黒町,,129.871874,32.75238,9991318,0
9991319,五島町,,99913,42,850-0035,長崎市元船町２,,129.872217,32.749411,9991319,0
9991320,大波止,,99913,42,850-0861,長崎市江戸町２,,129.872046,32.745116,9991320,0
9991321,出島,,99913,42,850-0862,長崎市出島町,,129.871681,32.743871,9991321,0
9991322,築町,,99913,42,850-0841,長崎市銅座町,,129.874942,32.742869,9991322,0
9991323,西浜町,,99913,42,850-0853,長崎市浜町,,129.876015,32.743735,9991323,0
9991324,観光通り,,99913,42,850-0853,長崎県長崎市浜町,,129.877775,32.743483,9991324,0
9991325,思案橋,,99913,42,850-0832,長崎市油屋町,,129.880264,32.742725,9991325,0
9991326,正覚寺下,,99913,42,850-0832,長崎市油屋町,,129.882109,32.741425,9991326,0
9991401,蛍茶屋,,99914,42,850-0013,長崎市中川町２,,129.894254,32.751135,9991401,0
9991402,新中川町,,99914,42,850-0014,長崎市新中川町,,129.890435,32.752362,9991402,0
9991403,新大工町,,99914,42,850-0017,長崎市新大工町,,129.886701,32.75238,9991403,0
9991404,諏訪神社前,,99914,42,850-0023,長崎市出来大工町,,129.884083,32.752596,9991404,0
9991405,公会堂前,,99914,42,850-0874,長崎市魚の町,,129.88065,32.74942,9991405,0
9991406,桜町,,99914,42,850-0031,長崎市桜町,,129.8755,32.750792,9991406,0
9991407,長崎駅前,,99914,42,850-0057,長崎市大黒町,,129.871874,32.75238,9991407,0
9991408,八千代町,,99914,42,850-0043,長崎市八千代町,,129.870436,32.754979,9991408,0
9991409,宝町,,99914,42,850-0045,長崎市宝町,,129.868913,32.75783,9991409,0
9991410,銭座町,,99914,42,850-0047,長崎市銭座町,,129.865801,32.761475,9991410,0
9991411,茂里町,,99914,42,852-8105,長崎市目覚町,,129.864557,32.763965,9991411,0
9991412,浦上駅前,,99914,42,852-8106,長崎市岩川町,,129.864171,32.765481,9991412,0
9991413,大学病院前,,99914,42,852-8107,長崎市浜口町,,129.864171,32.769017,9991413,0
9991414,浜口町,,99914,42,852-8107,長崎市浜口町,,129.863784,32.770551,9991414,0
9991415,松山町,,99914,42,852-8118,長崎市松山町,,129.862132,32.773437,9991415,0
9991416,大橋,,99914,42,852-8118,長崎市松山町,,129.861467,32.777713,9991416,0
9991417,浦上車庫前,,99914,42,852-8134,長崎市大橋町,,129.861381,32.77968,9991417,0
9991418,岩屋橋,,99914,42,852-8134,長崎市大橋町,,129.862282,32.781935,9991418,0
9991419,長崎大学前,,99914,42,852-8137,長崎市若葉町,,129.862282,32.785759,9991419,0
9991420,若葉町,,99914,42,852-8137,長崎市若葉町,,129.861596,32.787744,9991420,0
9991421,千歳町,,99914,42,852-8137,長崎市若葉町,,129.860952,32.78962,9991421,0
9991422,昭和町通り,,99914,42,852-8155,長崎県長崎市中園町,,129.860694,32.79063,9991422,0
9991423,住吉,,99914,42,852-8154,長崎市住吉町,,129.859836,32.792073,9991423,0
9991424,赤迫,,99914,42,852-8155,長崎市中園町,,129.857948,32.793732,9991424,0
9991501,蛍茶屋,,99915,42,850-0013,長崎市中川町２,,129.894254,32.751135,9991501,0
9991502,新中川町,,99915,42,850-0014,長崎市新中川町,,129.890435,32.752362,9991502,0
9991503,新大工町,,99915,42,850-0017,長崎市新大工町,,129.886701,32.75238,9991503,0
9991504,諏訪神社前,,99915,42,850-0023,長崎市出来大工町,,129.884083,32.752596,9991504,0
9991505,公会堂前,,99915,42,850-0874,長崎市魚の町,,129.88065,32.74942,9991505,0
9991506,賑橋,,99915,42,850-0875,長崎市栄町,,129.878204,32.746785,9991506,0
9991507,西浜町,,99915,42,850-0853,長崎市浜町,,129.876015,32.743735,9991507,0
9991508,観光通り,,99915,42,850-0853,長崎県長崎市浜町,,129.877775,32.743483,9991508,0
9991509,思案橋,,99915,42,850-0832,長崎市油屋町,,129.880264,32.742725,9991509,0
9991510,正覚寺下,,99915,42,850-0832,長崎市油屋町,,129.882109,32.741425,9991510,0
9991601,蛍茶屋,,99916,42,850-0013,長崎市中川町２,,129.894254,32.751135,9991601,0
9991602,新中川町,,99916,42,850-0014,長崎市新中川町,,129.890435,32.752362,9991602,0
9991603,新大工町,,99916,42,850-0017,長崎市新大工町,,129.886701,32.75238,9991603,0
9991604,諏訪神社前,,99916,42,850-0023,長崎市出来大工町,,129.884083,32.752596,9991604,0
9991605,公会堂前,,99916,42,850-0874,長崎市魚の町,,129.88065,32.74942,9991605,0
9991606,賑橋,,99916,42,850-0875,長崎市栄町,,129.878204,32.746785,9991606,0
9991607,西浜町,,99916,42,850-0853,長崎市浜町,,129.876015,32.743735,9991607,0
9991608,築町,,99916,42,850-0841,長崎市銅座町,,129.874942,32.742869,9991608,0
9991609,市民病院前,,99916,42,850-0842,長崎市新地町,,129.87241,32.740523,9991609,0
9991610,大浦海岸通り,,99916,42,850-0918,長崎県長崎市大浦町,,129.870608,32.737861,9991610,0
9991611,大浦天主堂下,,99916,42,850-0918,長崎市大浦町,,129.87078,32.736408,9991611,0
9991612,石橋,,99916,42,850-0918,長崎市大浦町,,129.872432,32.734269,9991612,0
9991701,藤崎宮前,,99917,43,860-0863,熊本市坪井２-４４,,130.713218,32.808928,9991701,0
9991702,黒髪町,,99917,43,860-0863,熊本市坪井６-５４８,,130.717232,32.818408,9991702,0
9991703,北熊本,,99917,43,861-8072,熊本市室園町２５５,,130.721981,32.827492,9991703,0
9991704,亀井,,99917,43,861-8066,熊本市清水亀井町１３７-６,,130.72224,32.837414,9991704,0
9991705,八景水谷,,99917,43,861-8066,熊本市清水亀井町２７５-５,,130.722812,32.841258,9991705,0
9991706,堀川,,99917,43,861-8064,熊本市八景水谷１-１０９２-２,,130.725231,32.848988,9991706,0
9991707,新須屋,,99917,43,861-1102,合志市須屋塔の木４４２-５,,130.730198,32.853266,9991707,0
9991708,須屋,,99917,43,861-1102,合志市須屋迫間１２１７-５,,130.736481,32.858493,9991708,0
9991709,三ツ石,,99917,43,861-1102,合志市須屋峠１８１６-４,,130.738378,32.864265,9991709,0
9991710,黒石,,99917,43,861-1102,合志市須屋黒石屋敷２６１９-７,,130.742164,32.870636,9991710,0
9991711,熊本高専前,,99917,43,861-1102,合志市須屋大窪２６７０-４,,130.746271,32.878088,9991711,0
9991712,再春荘前,,99917,43,861-1102,合志市須屋大窪２６６２-５,,130.747938,32.880866,9991712,0
9991713,御代志,,99917,43,861-1104,合志市御代志東海道１６９３-１,,130.750124,32.884985,9991713,0
9991801,上熊本,,99918,43,860-0079,熊本市上熊本２丁目,,130.699797,32.818324,9991801,0
9991802,韓々坂,,99918,43,860-0079,熊本市上熊本３-５５２,,130.701917,32.824201,9991802,0
9991803,池田,,99918,43,860-0082,熊本市池田２-８１７,,130.70748,32.827082,9991803,0
9991804,打越,,99918,43,860-0086,熊本市打越町,,130.713796,32.823765,9991804,0
9991805,坪井川公園,,99918,43,860-0863,熊本市坪井６-３６７,,130.718773,32.821427,9991805,0
9991806,北熊本,,99918,43,861-8072,熊本市室園町２５５,,130.721981,32.827492,9991806,0
9991901,立野,,99919,43,869-1401,阿蘇郡南阿蘇村立野,,130.965403,32.87757,9991901,0
9991902,長陽,,99919,43,869-1404,阿蘇郡南阿蘇村河陽,,131.003945,32.854287,9991902,0
9991903,加勢,,99919,43,869-1404,阿蘇郡南阿蘇村河陽,,131.010139,32.847818,9991903,0
9991904,阿蘇下田城ふれあい温泉,,99919,43,869-1404,阿蘇郡南阿蘇村河陽,,131.024654,32.844413,9991904,0
9991905,南阿蘇水の生まれる里白水高原,,99919,43,869-1505,阿蘇郡南阿蘇村中松,,131.040264,32.83407,9991905,0
9991906,中松,,99919,43,869-2205,阿蘇郡南阿蘇村中松,,131.053594,32.827381,9991906,0
9991907,阿蘇白川,,99919,43,869-1502,阿蘇郡南阿蘇村白川,,131.084345,32.822368,9991907,0
9991910,南阿蘇白川水源,,99919,43,869-1502,熊本県阿蘇郡南阿蘇村,,131.091667,32.822222,9991907,0
9991908,見晴台,,99919,43,869-1501,阿蘇郡南阿蘇村両併,,131.109621,32.817613,9991908,0
9991909,高森,,99919,43,869-1602,阿蘇郡高森町大字高森,,131.122561,32.81954,9991909,0
9992001,人吉温泉,,99920,43,868-0008,熊本県人吉市中青井町,,130.753797,32.216142,9992001,0
9992002,相良藩願成寺,,99920,43,868-0022,人吉市願成寺町高野,,130.769626,32.218429,9992002,0
9992003,川村,,99920,43,868-0095,球磨郡相良村大字柳瀬,,130.795307,32.207284,9992003,0
9992004,肥後西村,,99920,43,868-0303,球磨郡錦町大字西,,130.808839,32.202271,9992004,0
9992005,一武,,99920,43,868-0302,球磨郡錦町大字一武,,130.839915,32.214551,9992005,0
9992006,木上,,99920,43,868-0301,球磨郡錦町大字木上,,130.858888,32.224256,9992006,0
9992007,おかどめ幸福,,99920,43,868-0400,球磨郡あさぎり町,,130.873629,32.231011,9992007,0
9992008,あさぎり,,99920,43,868-0415,熊本県球磨郡あさぎり町免田,,130.893783,32.236191,9992008,0
9992009,東免田,,99920,43,868-0400,球磨郡あさぎり町,,130.912947,32.250095,9992009,0
9992010,公立病院前,,99920,43,868-0501,球磨郡多良木町大字多良木,,130.921768,32.255906,9992010,0
9992011,多良木,,99920,43,868-0501,球磨郡多良木町大字多良木,,130.933362,32.262903,9992011,0
9992012,東多良木,,99920,43,868-0502,球磨郡多良木町大字黒肥地,,130.950765,32.272211,9992012,0
9992013,新鶴羽,,99920,43,868-0501,球磨郡多良木町大字多良木,,130.966275,32.275372,9992013,0
9992014,湯前,,99920,43,868-0600,球磨郡湯前町字上牧原,,130.980094,32.281389,9992014,0
9992101,八代,,99921,43,866-0831,八代市萩原町１丁目,,130.621609,32.503805,9992101,0
9992102,肥後高田,,99921,43,866-0074,八代市平山新町,,130.612588,32.475546,9992102,0
9992103,日奈久温泉,,99921,43,869-5142,八代市日奈久塩北町,,130.581635,32.436163,9992103,0
9992104,肥後二見,,99921,43,869-5171,八代市二見洲口町,,130.550019,32.420111,9992104,0
9992105,上田浦,,99921,43,869-5307,葦北郡芦北町井牟田,,130.5186,32.392952,9992105,0
9992106,たのうら御立岬公園,,99921,43,869-5305,葦北郡芦北町田浦町,,130.506705,32.363202,9992106,0
9992107,肥後田浦,,99921,43,869-5303,葦北郡芦北町小田浦,,130.504778,32.350698,9992107,0
9992108,海浦,,99921,43,869-5304,葦北郡芦北町海浦,,130.488766,32.327997,9992108,0
9992109,佐敷,,99921,43,869-5442,葦北郡芦北町花岡西,,130.497277,32.302447,9992109,0
9992110,湯浦,,99921,43,869-5562,葦北郡芦北町大字宮崎,,130.504667,32.271231,9992110,0
9992111,津奈木,,99921,43,869-5600,葦北郡津奈木町,,130.450165,32.232417,9992111,0
9992112,新水俣,,99921,43,867-0002,水俣市初野３０５,,130.428893,32.210825,9992112,0
9992113,水俣,,99921,43,867-0045,水俣市桜井町１丁目,,130.395763,32.204919,9992113,0
9992114,袋,,99921,43,867-0034,水俣市大字袋,,130.374391,32.165517,9992114,0
9992115,米ノ津,,99921,46,899-0200,出水市下鯖淵,,130.342139,32.122269,9992115,0
9992116,出水,,99921,46,899-0203,出水市上鯖淵,,130.357803,32.089275,9992116,0
9992117,西出水,,99921,46,899-0213,出水市西出水町,,130.339285,32.075398,9992117,0
9992118,高尾野,,99921,46,899-0402,出水市高尾野町柴引,,130.301632,32.062536,9992118,0
9992119,野田郷,,99921,46,899-0502,出水市野田町下名,,130.267214,32.063238,9992119,0
9992120,折口,,99921,46,899-1601,阿久根市折口,,130.217485,32.060949,9992120,0
9992121,阿久根,,99921,46,899-1616,阿久根市栄町,,130.196276,32.022969,9992121,0
9992122,牛ノ浜,,99921,46,899-1741,阿久根市大川,,130.207038,31.973962,9992122,0
9992123,薩摩大川,,99921,46,899-1741,阿久根市大川,,130.219072,31.949414,9992123,0
9992124,西方,,99921,46,899-1801,薩摩川内市西方町,,130.223658,31.916153,9992124,0
9992125,薩摩高城,,99921,46,899-1802,薩摩川内市湯田町,,130.220649,31.892545,9992125,0
9992126,草道,,99921,46,899-1921,薩摩川内市水引町,,130.233533,31.854556,9992126,0
9992127,上川内,,99921,46,895-0061,薩摩川内市御陵下町,,130.292406,31.83537,9992127,0
9992128,川内,,99921,46,895-0024,薩摩川内市鳥追町,,130.31213,31.813726,9992128,0
9992201,田崎橋,,99922,43,860-0047,熊本市春日２丁目１０-５４地先,,130.68866,32.785398,9992201,0
9992202,二本木口,,99922,43,860-0047,熊本市春日２丁目９-９地先,,130.689368,32.786986,9992202,0
9992203,熊本駅前,,99922,43,860-0047,熊本市春日１丁目１６-１４地先,,130.690398,32.790377,9992203,0
9992204,祇園橋,,99922,43,860-0041,熊本県熊本市中央区細工町五丁目,,130.694647,32.792794,9992204,0
9992205,呉服町,,99922,43,860-0031,熊本市魚屋町２丁目１３地先,,130.696921,32.795753,9992205,0
9992206,河原町,,99922,43,860-0023,熊本市河原町７地先,,130.701299,32.794742,9992206,0
9992207,慶徳校前,,99922,43,860-0017,熊本市練兵町７４地先,,130.702457,32.797304,9992207,0
9992208,辛島町,,99922,43,860-0803,熊本市新市街７-１地先,,130.705075,32.798891,9992208,0
9992209,花畑町,,99922,43,860-0806,熊本市花畑町１２-１地先,,130.705483,32.801128,9992209,0
9992210,熊本城・市役所前,,99922,43,860-0808,熊本市手取本町１-１地先,,130.707028,32.802967,9992210,0
9992211,通町筋,,99922,43,860-0808,熊本市手取本町４-５地先,,130.709817,32.803364,9992211,0
9992212,水道町,,99922,43,860-0808,熊本市手取本町８地先,,130.712564,32.80239,9992212,0
9992213,九品寺交差点,,99922,43,862-0976,熊本市九品寺１丁目２-１１地先,,130.7178,32.799576,9992213,0
9992214,交通局前,,99922,43,862-0976,熊本市九品寺２丁目３地先,,130.719945,32.797664,9992214,0
9992215,味噌天神前,,99922,43,862-0973,熊本市大江本町６-６地先,,130.723722,32.795644,9992215,0
9992216,新水前寺駅前,,99922,43,862-0949,熊本市国府１丁目１１-２地先,,130.727069,32.793516,9992216,0
9992217,国府,,99922,43,862-0949,熊本市国府１丁目２０-１地先,,130.729172,32.792217,9992217,0
9992218,水前寺公園,,99922,43,862-0941,熊本市出水１丁目６-１地先,,130.732455,32.789908,9992218,0
9992219,市立体育館前,,99922,43,862-0941,熊本市出水１丁目８-５地先,,130.734708,32.788429,9992219,0
9992220,商業高校前,,99922,43,862-0955,熊本市神水本町１-４４地先,,130.739107,32.785398,9992220,0
9992221,八丁馬場,,99922,43,862-0955,熊本市神水本町１９-６地先,,130.741746,32.783739,9992221,0
9992222,神水・市民病院前,,99922,43,862-0955,熊本市神水本町２１-２２地先,,130.74518,32.783649,9992222,0
9992223,健軍校前,,99922,43,862-0911,熊本市健軍４丁目１３-２地先,,130.750952,32.781917,9992223,0
9992224,動植物園入口,,99922,43,862-0908,熊本市新生１丁目地先,,130.754707,32.78051,9992224,0
9992225,健軍交番前,,99922,43,862-0908,熊本市新生１丁目９-７地先,,130.757668,32.779463,9992225,0
9992226,健軍町,,99922,43,862-0903,熊本市若葉１丁目２-５地先,,130.761209,32.778381,9992226,0
9992301,上熊本駅前,,99923,43,860-0079,熊本市上熊本２丁目１８-８地内,,130.699266,32.81716,9992301,0
9992302,県立体育館前,,99923,43,860-0079,熊本市上熊本２丁目１７-３９地先,,130.69896,32.815032,9992302,0
9992303,本妙寺入口,,99923,43,860-0079,熊本市上熊本２丁目１３-８地先,,130.698466,32.813626,9992303,0
9992304,杉塘,,99923,43,860-0079,熊本市上熊本２丁目４-２２地先,,130.696986,32.810308,9992304,0
9992305,段山町,,99923,43,860-0006,熊本市段山本町４-３８地先,,130.695505,32.806701,9992305,0
9992306,蔚山町,,99923,43,860-0004,熊本市新町１丁目７-２６地先,,130.696986,32.803959,9992306,0
9992307,新町,,99923,43,860-0004,熊本市新町２丁目６-１０地先,,130.697222,32.799739,9992307,0
9992308,洗馬橋,,99923,43,860-0004,熊本市新町２丁目３-７地先,,130.698917,32.799234,9992308,0
9992309,西辛島町,,99923,43,860-0804,熊本市辛島町７-９地先,,130.702264,32.798801,9992309,0
9992310,辛島町,,99923,43,860-0803,熊本市新市街７-１地先,,130.705075,32.798891,9992310,0
9992311,花畑町,,99923,43,860-0806,熊本市花畑町１２-１地先,,130.705483,32.801128,9992311,0
9992312,熊本城・市役所前,,99923,43,860-0808,熊本市手取本町１-１地先,,130.707028,32.802967,9992312,0
9992313,通町筋,,99923,43,860-0808,熊本市手取本町４-５地先,,130.709817,32.803364,9992313,0
9992314,水道町,,99923,43,860-0808,熊本市手取本町８地先,,130.712564,32.80239,9992314,0
9992315,九品寺交差点,,99923,43,862-0976,熊本市九品寺１丁目２-１１地先,,130.7178,32.799576,9992315,0
9992316,交通局前,,99923,43,862-0976,熊本市九品寺２丁目３地先,,130.719945,32.797664,9992316,0
9992317,味噌天神前,,99923,43,862-0973,熊本市大江本町６-６地先,,130.723722,32.795644,9992317,0
9992318,新水前寺駅前,,99923,43,862-0949,熊本市国府１丁目１１-２地先,,130.727069,32.793516,9992318,0
9992319,国府,,99923,43,862-0949,熊本市国府１丁目２０-１地先,,130.729172,32.792217,9992319,0
9992320,水前寺公園,,99923,43,862-0941,熊本市出水１丁目６-１地先,,130.732455,32.789908,9992320,0
9992321,市立体育館前,,99923,43,862-0941,熊本市出水１丁目８-５地先,,130.734708,32.788429,9992321,0
9992322,商業高校前,,99923,43,862-0955,熊本市神水本町１-４４地先,,130.739107,32.785398,9992322,0
9992323,八丁馬場,,99923,43,862-0955,熊本市神水本町１９-６地先,,130.741746,32.783739,9992323,0
9992324,神水・市民病院前,,99923,43,862-0955,熊本市神水本町２１-２２地先,,130.74518,32.783649,9992324,0
9992325,健軍校前,,99923,43,862-0911,熊本市健軍４丁目１３-２地先,,130.750952,32.781917,9992325,0
9992326,動植物園入口,,99923,43,862-0908,熊本市新生１丁目地先,,130.754707,32.78051,9992326,0
9992327,健軍交番前,,99923,43,862-0908,熊本市新生１丁目９-７地先,,130.757668,32.779463,9992327,0
9992328,健軍町,,99923,43,862-0903,熊本市若葉１丁目２-５地先,,130.761209,32.778381,9992328,0
9992501,鹿児島駅前,,99925,46,892-0812,鹿児島市浜町,,130.562414,31.601264,9992501,0
9992502,桜島桟橋通,,99925,46,892-0817,鹿児島市小川町,,130.560976,31.599976,9992502,0
9992503,水族館口,,99925,46,892-0816,鹿児島市山下町,,130.559539,31.59898,9992503,0
9992504,市役所前,,99925,46,892-0816,鹿児島市山下町,,130.558015,31.597179,9992504,0
9992505,朝日通,,99925,46,892-0821,鹿児島市名山町,,130.557286,31.594374,9992505,0
9992506,いづろ通,,99925,46,892-0828,鹿児島市金生町,,130.557672,31.591824,9992506,0
9992507,天文館通,,99925,46,892-0843,鹿児島市千日町,,130.555075,31.590691,9992507,0
9992508,高見馬場,,99925,46,892-0844,鹿児島市山之口町,,130.550977,31.588726,9992508,0
9992509,市立病院前,,99925,46,892-0845,鹿児島市樋之口町,,130.553058,31.585738,9992509,0
9992510,新屋敷,,99925,46,892-0846,鹿児島市加治屋町,,130.553724,31.583855,9992510,0
9992511,武之橋,,99925,46,890-0056,鹿児島市下荒田１,,130.554088,31.57976,9992511,0
9992512,交通局前,,99925,46,890-0056,鹿児島市下荒田１,,130.553702,31.57711,9992512,0
9992513,荒田八幡,,99925,46,890-0056,鹿児島市下荒田３,,130.553015,31.573618,9992513,0
9992514,騎射場,,99925,46,890-0056,鹿児島市下荒田３,,130.5519,31.569102,9992514,0
9992515,鴨池,,99925,46,890-0063,鹿児島市鴨池２,,130.549968,31.564129,9992515,0
9992516,郡元,,99925,46,890-0063,鹿児島県鹿児島市鴨池一丁目,,130.549024,31.562466,9992516,0
9992517,涙橋,,99925,46,890-0065,鹿児島市郡元２,,130.546707,31.559266,9992517,0
9992518,南鹿児島駅前,,99925,46,890-0069,鹿児島市南郡元町,,130.544196,31.555371,9992518,0
9992519,二軒茶屋,,99925,46,890-0073,鹿児島市宇宿１,,130.541192,31.55005,9992519,0
9992520,宇宿一丁目,,99925,46,890-0073,鹿児島市宇宿１,,130.539068,31.546439,9992520,0
9992521,脇田,,99925,46,890-0073,鹿児島市宇宿３,,130.53763,31.54418,9992521,0
9992522,笹貫,,99925,46,891-0114,鹿児島市小松原１,,130.534047,31.539636,9992522,0
9992523,上塩屋,,99925,46,891-0114,鹿児島市小松原１,,130.528811,31.534762,9992523,0
9992524,谷山,,99925,46,891-0141,鹿児島県鹿児島市谷山中央1丁目4127,,130.523404,31.530108,9992524,0
9992601,鹿児島駅前,,99926,46,892-0812,鹿児島市浜町,,130.562414,31.601264,9992601,0
9992602,桜島桟橋通,,99926,46,892-0817,鹿児島市小川町,,130.560976,31.599976,9992602,0
9992603,水族館口,,99926,46,892-0816,鹿児島市山下町,,130.559539,31.59898,9992603,0
9992604,市役所前,,99926,46,892-0816,鹿児島市山下町,,130.558015,31.597179,9992604,0
9992605,朝日通,,99926,46,892-0821,鹿児島市名山町,,130.557286,31.594374,9992605,0
9992606,いづろ通,,99926,46,892-0828,鹿児島市金生町,,130.557672,31.591824,9992606,0
9992607,天文館通,,99926,46,892-0843,鹿児島市千日町,,130.555075,31.590691,9992607,0
9992608,高見馬場,,99926,46,892-0844,鹿児島市山之口町,,130.550977,31.588726,9992608,0
9992609,加治屋町,,99926,46,892-0846,鹿児島市加治屋町,,130.548037,31.58731,9992609,0
9992610,高見橋,,99926,46,890-0053,鹿児島市中央町,,130.545162,31.58593,9992610,0
9992611,鹿児島中央駅前,,99926,46,890-0053,鹿児島市中央町３７-１,,130.543703,31.58412,9992611,0
9992612,都通,,99926,46,890-0053,鹿児島市中央町,,130.543038,31.580601,9992612,0
9992613,中洲通,,99926,46,890-0055,鹿児島市上荒田町,,130.542587,31.578581,9992613,0
9992614,たばこ産業前,,99926,46,890-0055,鹿児島市上荒田町,,130.541836,31.575812,9992614,0
9992615,神田,,99926,46,890-0055,鹿児島市上荒田町,,130.540613,31.572932,9992615,0
9992616,唐湊,,99926,46,890-0065,鹿児島市郡元１,,130.541085,31.570556,9992616,0
9992617,工学部前,,99926,46,890-0065,鹿児島市郡元１,,130.541857,31.568408,9992617,0
9992618,純心学園前,,99926,46,890-0065,鹿児島市郡元１,,130.542694,31.566872,9992618,0
9992619,中郡,,99926,46,890-0065,鹿児島市郡元１,,130.545312,31.56498,9992619,0
9992620,郡元,,99926,46,890-0063,鹿児島県鹿児島市鴨池一丁目,,130.549024,31.562466,9992620,0
9992701,那覇空港,,99927,47,901-0142,那覇市字鏡水９３８-５,,127.652214,26.206515,9992701,0
9992702,赤嶺,,99927,47,901-0154,那覇市赤嶺２-１０００-１１,,127.660348,26.193289,9992702,0
9992703,小禄,,99927,47,901-0156,那覇市田原３-１０００-１,,127.666853,26.196455,9992703,0
9992704,奥武山公園,,99927,47,900-0026,那覇市奥武山町３１６-２,,127.675252,26.200714,9992704,0
9992705,壺川,,99927,47,900-0025,那覇市壺川３-１０６,,127.678344,26.205927,9992705,0
9992706,旭橋,,99927,47,900-0021,那覇市泉崎１-１０５,,127.675515,26.21191,9992706,0
9992707,県庁前,,99927,47,900-0015,那覇市久茂地１-１０３,,127.679343,26.214446,9992707,0
9992708,美栄橋,,99927,47,900-0013,那覇市牧志１-９６５,,127.684328,26.219245,9992708,0
9992709,牧志,,99927,47,900-0013,那覇市牧志３-２７２-５,,127.69255,26.217248,9992709,0
9992710,安里,,99927,47,902-0067,那覇市安里３８９-７,,127.695736,26.216737,9992710,0
9992711,おもろまち,,99927,47,902-0067,那覇市安里３０５-３,,127.698391,26.222701,9992711,0
9992712,古島,,99927,47,902-0061,那覇市古島９３-１,,127.703079,26.230919,9992712,0
9992713,市立病院前,,99927,47,902-0061,那覇市古島１７２-２,,127.710003,26.227548,9992713,0
9992714,儀保,,99927,47,903-0821,那覇市首里儀保町３-１４-３,,127.719039,26.224663,9992714,0
9992715,首里,,99927,47,903-0806,那覇市首里汀良町３-１９,,127.725492,26.219191,9992715,0
9992801,九州鉄道記念館,,99928,40,,福岡県北九州市門司区,,130.962439,33.944392,9992801,0
9992802,出光美術館,,99928,40,,福岡県北九州市門司区,,130.965292,33.947792,9992802,0
9992803,ノーフォーク広場,,99928,40,,福岡県北九州市門司区旧門司,,130.964254,33.955973,9992803,0
9992804,関門海峡めかり,,99928,40,,福岡県北九州市門司区門司,,130.967347,33.960627,9992804,0